[{"OBJECT_NAME":"STARLINK-1912","OBJECT_ID":"2020-088BJ","EPOCH":"2026-03-09T00:10:17.079168","MEAN_MOTION":15.55634663,"ECCENTRICITY":0.00082154,"INCLINATION":53.0525,"RA_OF_ASC_NODE":284.7515,"ARG_OF_PERICENTER":157.4332,"MEAN_ANOMALY":202.7041,"EPHEMERIS_TYPE":0,"CLASSIFICATION_TYPE":"U","NORAD_CAT_ID":47178,"ELEMENT_SET_NO":999,"REV_AT_EPOCH":29201,"BSTAR":0.0016669188,"MEAN_MOTION_DOT":0.00117861,"MEAN_MOTION_DDOT":0},{"OBJECT_NAME":"STARLINK-36514","OBJECT_ID":"2026-020AA","EPOCH":"2026-03-09T22:00:01.999584","MEAN_MOTION":15.6241414,"ECCENTRICITY":0.00012447,"INCLINATION":42.9994,"RA_OF_ASC_NODE":140.2417,"ARG_OF_PERICENTER":280.6067,"MEAN_ANOMALY":239.0507,"EPHEMERIS_TYPE":0,"CLASSIFICATION_TYPE":"U","NORAD_CAT_ID":67641,"ELEMENT_SET_NO":999,"REV_AT_EPOCH":604,"BSTAR":-0.024506103,"MEAN_MOTION_DOT":-0.01968149,"MEAN_MOTION_DDOT":0}]
